NORAD_CAT_ID,OBJECT_NAME,OBJECT_TYPE,EPOCH,MEAN_MOTION,ECCENTRICITY,INCLINATION,RA_OF_ASC_NODE,ARG_OF_PERICENTER,MEAN_ANOMALY,BSTAR,MEAN_MOTION_DOT,MEAN_MOTION_DDOT,TLE_LINE0,TLE_LINE1,TLE_LINE2,SEMIMAJOR_AXIS,PERIOD,APOGEE,PERIGEE,DECAYED
53795.0,STARLINK-4742,PAYLOAD,2022-10-11 22:00:00,15.73155879,0.0001615,53.214,114.383,140.9463,262.2584,0.00076509,0.00107941,0.0,0 STARLINK-4742,1 53795U 22111Y   22284.91667824  .00107941  00000-0  76509-3 0  9999,2 53795  53.2140 114.3830 0001615 140.9463 262.2584 15.73155879  1300,6728.021,91.536,350.973,348.7990000000001,0.0
53795.0,STARLINK-4742,PAYLOAD,2022-10-12 14:00:01,15.73305481,0.0001844,53.2161,111.083,146.881,74.2045,-0.00098074,-0.00136674,0.0,0 STARLINK-4742,1 53795U 22111Y   22285.58334491 -.00136674  00000-0 -98074-3 0  9992,2 53795  53.2161 111.0830 0001844 146.8810  74.2045 15.73305481  4898,6727.594,91.527,350.7,348.219,0.0
53795.0,STARLINK-4742,PAYLOAD,2022-10-12 22:00:00,15.73179652,0.0001473,53.2173,109.437,145.0686,165.0192,0.00027075,0.00037515,0.0,0 STARLINK-4742,1 53795U 22111Y   22285.91667824  .00037515  00000-0  27075-3 0  9993,2 53795  53.2173 109.4370 0001473 145.0686 165.0192 15.73179652  1305,6727.953,91.534,350.809,348.827,0.0
53795.0,STARLINK-4742,PAYLOAD,2022-10-13 06:00:00,15.7320407,0.0001489,53.2176,107.7862,150.0084,249.0018,2.7533e-06,-2.34e-06,0.0,0 STARLINK-4742,1 53795U 22111Y   22286.25001157 -.00000234  00000-0  27533-5 0  9992,2 53795  53.2176 107.7862 0001489 150.0084 249.0018 15.73204070  4991,6727.884,91.533,350.75,348.747,0.0
53795.0,STARLINK-4742,PAYLOAD,2022-10-13 14:00:01,15.73198567,0.0001802,53.2175,106.1362,140.5068,347.4398,7.778699999999999e-05,0.00010309,0.0,0 STARLINK-4742,1 53795U 22111Y   22286.58334491  .00010309  00000-0  77787-4 0  9996,2 53795  53.2175 106.1362 0001802 140.5068 347.4398 15.73198567  1302,6727.899,91.533,350.977,348.552,0.0
53795.0,STARLINK-4742,PAYLOAD,2022-10-13 22:00:00,15.73192886,0.0001450999999999,53.2174,104.4885,140.7929,76.0901,0.0001385999999999,0.00018869,0.0,0 STARLINK-4742,1 53795U 22111Y   22286.91667824  .00018869  00000-0  13860-3 0  9992,2 53795  53.2174 104.4885 0001451 140.7929  76.0901 15.73192886  1303,6727.915,91.534,350.75699999999995,348.80400000000014,0.0
53795.0,STARLINK-4742,PAYLOAD,2022-10-14 08:00:01,15.73103725,0.0001774,53.2164,102.4234,136.4729,281.752,0.00043404,0.00060484,0.0,0 STARLINK-4742,1 53795U 22111Y   22287.33335648  .00060484  00000-0  43404-3 0  9992,2 53795  53.2164 102.4234 0001774 136.4729 281.7520 15.73103725  5160,6728.17,91.539,351.228,348.841,0.0
53795.0,STARLINK-4742,PAYLOAD,2022-10-14 14:00:01,15.73175265,0.0001899,53.217,101.1874,131.878,262.8829,0.00033952,0.00047248,0.0,0 STARLINK-4742,1 53795U 22111Y   22287.58334491  .00047248  00000-0  33952-3 0  9994,2 53795  53.2170 101.1874 0001899 131.8780 262.8829 15.73175265  1309,6727.965999999999,91.535,351.108,348.55300000000005,0.0
53795.0,STARLINK-4742,PAYLOAD,2022-10-14 18:00:00,15.7320313,0.0001858,53.2172,100.3645,129.8431,129.371,1.3008e-05,1.205e-05,0.0,0 STARLINK-4742,1 53795U 22111Y   22287.75001157  .00001205  00000-0  13008-4 0  9997,2 53795  53.2172 100.3645 0001858 129.8431 129.3710 15.73203130  1302,6727.886,91.533,351.001,348.501,0.0
53795.0,STARLINK-4742,PAYLOAD,2022-10-15 14:00:01,15.73234491,0.0001512,53.2163,96.237,127.0482,174.4466,-0.00052884,-0.00074298,0.0,0 STARLINK-4742,1 53795U 22111Y   22288.58334491 -.00074298  00000-0 -52884-3 0  9997,2 53795  53.2163  96.2370 0001512 127.0482 174.4466 15.73234491  5366,6727.797,91.531,350.67900000000014,348.645,0.0
53795.0,STARLINK-4742,PAYLOAD,2022-10-15 22:00:01,15.731426999999998,0.0001337,53.2168,94.5906,137.7345,252.8755,0.00035202,0.00048951,0.0,0 STARLINK-4742,1 53795U 22111Y   22288.91668981  .00048951  00000-0  35202-3 0  9998,2 53795  53.2168  94.5906 0001337 137.7345 252.8755 15.73142700  5417,6728.059,91.537,350.8230000000001,349.024,0.0
53795.0,STARLINK-4742,PAYLOAD,2022-10-16 06:00:00,15.73154082,0.0001524,53.2158,92.9376,122.8128,356.5698,0.00030152,0.00041824,0.0,0 STARLINK-4742,1 53795U 22111Y   22289.25001157  .00041824  00000-0  30152-3 0  9993,2 53795  53.2158  92.9376 0001524 122.8128 356.5698 15.73154082  5471,6728.026,91.536,350.916,348.866,0.0
53795.0,STARLINK-4742,PAYLOAD,2022-10-16 14:00:01,15.73203676,0.0001561999999999,53.2161,91.2888,120.0238,88.2427,0.00043176,0.00060422,0.0,0 STARLINK-4742,1 53795U 22111Y   22289.58334491  .00060422  00000-0  43176-3 0  9994,2 53795  53.2161  91.2888 0001562 120.0238  88.2427 15.73203676  1300,6727.885,91.533,350.801,348.699,0.0
53795.0,STARLINK-4742,PAYLOAD,2022-10-16 22:00:00,15.73235517,0.0001238,53.2164,89.64200000000002,112.002,185.2245,0.00024547,0.00034022,0.0,0 STARLINK-4742,1 53795U 22111Y   22289.91667824  .00034022  00000-0  24547-3 0  9998,2 53795  53.2164  89.6420 0001238 112.0020 185.2245 15.73235517  5574,6727.794,91.531,350.492,348.826,0.0
53795.0,STARLINK-4742,PAYLOAD,2022-10-17 06:00:00,15.73216436,0.0001133,53.2169,87.9895,128.1358,258.0012,-4.9662e-05,-7.588e-05,0.0,0 STARLINK-4742,1 53795U 22111Y   22290.25001157 -.00007588  00000-0 -49662-4 0  9993,2 53795  53.2169  87.9895 0001133 128.1358 258.0012 15.73216436  5628,6727.848000000001,91.532,350.476,348.951,0.0
53795.0,STARLINK-4742,PAYLOAD,2022-10-17 14:00:01,15.73278343,0.0001075999999999,53.2167,86.3405,119.0021,356.1303,-0.00047974,-0.00067632,0.0,0 STARLINK-4742,1 53795U 22111Y   22290.58334491 -.00067632  00000-0 -47974-3 0  9998,2 53795  53.2167  86.3405 0001076 119.0021 356.1303 15.73278343  5682,6727.672,91.529,350.261,348.81300000000016,0.0
53795.0,STARLINK-4742,PAYLOAD,2022-10-17 22:00:00,15.73209429,0.0001154,53.2156,84.6921,102.9748,101.1152,-8.074800000000001e-05,-0.0001193999999999,0.0,0 STARLINK-4742,1 53795U 22111Y   22290.91667824 -.00011940  00000-0 -80748-4 0  9992,2 53795  53.2156  84.6921 0001154 102.9748 101.1152 15.73209429  5733,6727.868,91.533,350.51,348.957,0.0
53795.0,STARLINK-4742,PAYLOAD,2022-10-18 14:00:01,15.73193659,0.0001117,53.2159,81.3919,111.3619,270.5913,0.00025743,0.00035652,0.0,0 STARLINK-4742,1 53795U 22111Y   22291.58334491  .00035652  00000-0  25743-3 0  9994,2 53795  53.2159  81.3919 0001117 111.3619 270.5913 15.73193659  1309,6727.913000000001,91.534,350.53,349.027,0.0
53795.0,STARLINK-4742,PAYLOAD,2022-10-18 22:00:00,15.73203392,0.0001626999999999,53.2172,79.7453,109.0637,1.8283,1.7221e-05,1.797e-05,0.0,0 STARLINK-4742,1 53795U 22111Y   22291.91667824  .00001797  00000-0  17221-4 0  9996,2 53795  53.2172  79.7453 0001627 109.0637   1.8283 15.73203392  1309,6727.886,91.533,350.845,348.656,0.0
53795.0,STARLINK-4742,PAYLOAD,2022-10-19 14:00:01,15.73214488,0.0001402,53.2161,76.4433,96.1503,192.5887,0.00022433,0.00030999,0.0,0 STARLINK-4742,1 53795U 22111Y   22292.58334491  .00030999  00000-0  22433-3 0  9997,2 53795  53.2161  76.4433 0001402  96.1503 192.5887 15.73214488  1304,6727.854,91.532,350.662,348.776,0.0
53795.0,STARLINK-4742,PAYLOAD,2022-10-19 22:00:00,15.73278844,0.0001085999999999,53.2165,74.7962,94.4539,283.2413,-0.0011492,-0.00159416,0.0,0 STARLINK-4742,1 53795U 22111Y   22292.91667824 -.00159416  00000-0 -11492-2 0  9993,2 53795  53.2165  74.7962 0001086  94.4539 283.2413 15.73278844  1303,6727.67,91.529,350.266,348.805,0.0
53795.0,STARLINK-4742,PAYLOAD,2022-10-20 06:00:00,15.73196995,9.22e-05,53.2155,73.143,103.3178,3.3565,0.00024299,0.00033614,0.0,0 STARLINK-4742,1 53795U 22111Y   22293.25001157  .00033614  00000-0  24299-3 0  9991,2 53795  53.2155  73.1430 0000922 103.3178   3.3565 15.73196995  6100,6727.904,91.533,350.389,349.148,0.0
53795.0,STARLINK-4742,PAYLOAD,2022-10-20 14:00:01,15.7323893,9.98e-05,53.2158,71.4947,90.8834,104.7042,-0.00057799,-0.00081091,0.0,0 STARLINK-4742,1 53795U 22111Y   22293.58334491 -.00081091  00000-0 -57799-3 0  9992,2 53795  53.2158  71.4947 0000998  90.8834 104.7042 15.73238930  1308,6727.784000000002,91.531,350.321,348.978,0.0
53795.0,STARLINK-4742,PAYLOAD,2022-10-20 22:00:00,15.732083800000002,0.0001118,53.2159,69.8466,79.0068,205.5127,-9.1113e-05,-0.00013391,0.0,0 STARLINK-4742,1 53795U 22111Y   22293.91667824 -.00013391  00000-0 -91113-4 0  9995,2 53795  53.2159  69.8466 0001118  79.0068 205.5127 15.73208380  6203,6727.871,91.533,350.48800000000006,348.9840000000001,0.0
53795.0,STARLINK-4742,PAYLOAD,2022-10-21 14:00:01,15.73223125,0.0001159999999999,53.2168,66.5466,80.3154,22.0807,-0.00042608,-0.0006005,0.0,0 STARLINK-4742,1 53795U 22111Y   22294.58334491 -.00060050  00000-0 -42608-3 0  9998,2 53795  53.2168  66.5466 0001160  80.3154  22.0807 15.73223125  1302,6727.829000000002,91.532,350.475,348.914,0.0
53795.0,STARLINK-4742,PAYLOAD,2022-10-21 22:00:00,15.73225193,0.0001199,53.2156,64.8967,71.586,119.7317,-0.00030826,-0.00043704,0.0,0 STARLINK-4742,1 53795U 22111Y   22294.91667824 -.00043704  00000-0 -30826-3 0  9990,2 53795  53.2156  64.8967 0001199  71.5860 119.7317 15.73225193  6362,6727.823,91.532,350.495,348.88199999999995,0.0
53795.0,STARLINK-4742,PAYLOAD,2022-10-22 14:00:01,15.73209811,0.0001159,53.2161,61.5972,74.2403,294.9521,-0.00011755,-0.0001709,0.0,0 STARLINK-4742,1 53795U 22111Y   22295.58334491 -.00017090  00000-0 -11755-3 0  9994,2 53795  53.2161  61.5972 0001159  74.2403 294.9521 15.73209811  1308,6727.8669999999975,91.533,350.51199999999994,348.952,0.0
53795.0,STARLINK-4742,PAYLOAD,2022-10-22 22:00:00,15.73260425,0.0001223,53.2162,59.9479,62.8986,35.2282,-0.00029702,-0.00042203,0.0,0 STARLINK-4742,1 53795U 22111Y   22295.91667824 -.00042203  00000-0 -29702-3 0  9995,2 53795  53.2162  59.9479 0001223  62.8986  35.2282 15.73260425  1301,6727.723000000001,91.53,350.411,348.765,0.0
53795.0,STARLINK-4742,PAYLOAD,2022-10-23 00:00:02,15.73259765,0.0001237,53.2164,59.5349,66.2248,144.2134,-0.00032908,-0.00046666,0.0,0 STARLINK-4742,1 53795U 22111Y   22296.00002315 -.00046666  00000-0 -32908-3 0  9993,2 53795  53.2164  59.5349 0001237  66.2248 144.2134 15.73259765  6531,6727.725,91.53,350.422,348.7580000000001,0.0
